[{"OBJECT_NAME":"STARLINK-30122","OBJECT_ID":"2023-067A","EPOCH":"2026-03-09T13:22:01.960032","MEAN_MOTION":15.02539809,"ECCENTRICITY":0.00011476,"INCLINATION":43.001,"RA_OF_ASC_NODE":275.7027,"ARG_OF_PERICENTER":266.2157,"MEAN_ANOMALY":93.8554,"EPHEMERIS_TYPE":0,"CLASSIFICATION_TYPE":"U","NORAD_CAT_ID":56688,"ELEMENT_SET_NO":999,"REV_AT_EPOCH":15570,"BSTAR":-3.8625006e-5,"MEAN_MOTION_DOT":-7.25e-6,"MEAN_MOTION_DDOT":0},{"OBJECT_NAME":"CZ-6A DEB","OBJECT_ID":"2024-140KH","EPOCH":"2026-03-09T14:59:57.464160","MEAN_MOTION":15.05079233,"ECCENTRICITY":0.0091207,"INCLINATION":89.0655,"RA_OF_ASC_NODE":284.096,"ARG_OF_PERICENTER":124.4022,"MEAN_ANOMALY":236.5882,"EPHEMERIS_TYPE":0,"CLASSIFICATION_TYPE":"U","NORAD_CAT_ID":60878,"ELEMENT_SET_NO":999,"REV_AT_EPOCH":8457,"BSTAR":0.0027733,"MEAN_MOTION_DOT":0.00043481,"MEAN_MOTION_DDOT":0}]
